{"type": "FeatureCollection", "features": [{"type": "Feature", "properties": {"name": "Parc national des Sundarbans", "designation": "World Heritage Site (natural or mixed)", "gis_marine_area_km2": "241.595683219426007", "wdpa_source_id": "14177"}, "geometry": {"type": "Polygon", "coordinates": [[[88.96709633299997, 22.192634499999997], [88.96741350000002, 22.187877000000015], [88.97026799999998, 22.176459000000023], [88.97312249999999, 22.165992500000016], [88.979783, 22.159332000000006], [88.98263750000001, 22.154574500000024], [88.98867272899997, 22.153188028999978], [88.9940555, 22.146010999999987], [88.9940555, 22.143156499999975], [88.99310400000002, 22.132690000000025], [88.99120099999999, 22.121271999999976], [88.98739499999999, 22.109853999999984], [88.98168600000002, 22.099387499999978], [88.97883150000001, 22.091775499999983], [88.972171, 22.079406000000006], [88.97026799999998, 22.067036499999972], [88.968365, 22.06227899999999], [88.96646199999998, 22.054666999999995], [88.96455900000001, 22.049909500000012], [88.97026799999998, 22.046103500000015], [88.97502550000002, 22.044200499999988], [88.98168600000002, 22.04039449999999], [88.98168600000002, 22.03753999999998], [88.979783, 22.029927999999984], [88.97121950000002, 22.012801000000024], [88.97312249999999, 22.010897999999997], [88.97788000000003, 22.007092], [88.98073449999998, 21.99852850000002], [88.97883150000001, 21.99377099999998], [88.97788000000003, 21.989964999999984], [88.98168600000002, 21.988062000000014], [88.98929800000002, 21.9852075], [88.99310400000002, 21.98045000000002], [88.99500699999999, 21.97378950000001], [89.00071600000001, 21.977595500000007], [89.0054735, 21.98235299999999], [89.012134, 21.9852075], [89.01689149999999, 21.98045000000002], [89.01498850000002, 21.972838000000024], [89.01023099999998, 21.969032000000027], [89.0054735, 21.964274499999988], [89.00071600000001, 21.955711000000008], [89.0016675, 21.94714750000003], [89.01118250000002, 21.94048700000002], [89.01879450000001, 21.93382650000001], [89.03306700000002, 21.925262999999973], [89.02735799999999, 21.923360000000002], [89.023552, 21.916699499999993], [89.02069749999998, 21.910990500000025], [89.01784300000003, 21.901475500000004], [89.01498850000002, 21.891008999999997], [89.01689149999999, 21.883397000000002], [89.02450349999998, 21.874833500000022], [89.0302125, 21.869124499999998], [89.0340185, 21.86056100000002], [89.0340185, 21.852949000000024], [89.03306700000002, 21.839628000000005], [89.02926100000002, 21.826306999999986], [89.02545500000002, 21.809180000000026], [89.023552, 21.799665000000005], [89.02450349999998, 21.787295500000027], [89.02450349999998, 21.774925999999994], [89.02830949999998, 21.769217000000026], [89.03211549999997, 21.755896000000007], [89.0416305, 21.7454295], [89.05019399999998, 21.73876899999999], [89.05780600000003, 21.73210849999998], [89.059709, 21.726399500000014], [89.04258199999998, 21.722593500000016], [89.02830949999998, 21.71878750000002], [89.01784300000003, 21.71878750000002], [89.01023099999998, 21.715933000000007], [89.00261899999998, 21.71878750000002], [88.99120099999999, 21.724496499999987], [88.97883150000001, 21.731156999999996], [88.97883150000001, 21.73686600000002], [88.98929800000002, 21.740672000000018], [88.98549200000002, 21.747332500000027], [88.97883150000001, 21.744478000000015], [88.97026799999998, 21.73591449999998], [88.96741350000002, 21.7454295], [88.96360750000002, 21.753041499999995], [88.95884999999998, 21.755896000000007], [88.94743199999999, 21.75875050000002], [88.94077149999998, 21.76065349999999], [88.93030499999998, 21.764459499999987], [88.92459600000001, 21.75875050000002], [88.92745050000002, 21.746380999999985], [88.9255475, 21.731156999999996], [88.91888699999998, 21.72544799999997], [88.87892399999998, 21.7454295], [88.8741665, 21.756847499999992], [88.8703605, 21.765410999999972], [88.86084549999998, 21.771119999999996], [88.852282, 21.774925999999994], [88.83991250000003, 21.77397450000001], [88.8303975, 21.77682900000002], [88.8303975, 21.783489499999973], [88.83230049999997, 21.79205300000001], [88.83610650000003, 21.804422499999987], [88.83230049999997, 21.823452499999973], [88.83230049999997, 21.835822000000007], [88.8303975, 21.842482500000017], [88.81802800000003, 21.84724], [88.8018525, 21.841530999999975], [88.78948300000002, 21.842482500000017], [88.77901650000001, 21.842482500000017], [88.77140450000002, 21.84057949999999], [88.772356, 21.85390050000001], [88.779968, 21.85580349999998], [88.779968, 21.861512500000003], [88.77330749999999, 21.869124499999998], [88.77140450000002, 21.877687999999978], [88.7580835, 21.88054249999999], [88.75618050000003, 21.887203], [88.74952000000002, 21.89005750000001], [88.7466655, 21.89576649999998], [88.740005, 21.899572499999977], [88.732393, 21.901475500000004], [88.72668399999998, 21.903378499999974], [88.72097500000001, 21.910038999999983], [88.71621750000003, 21.910990500000025], [88.71621750000003, 21.924311499999988], [88.72097500000001, 21.932875000000024], [88.72287799999998, 21.93858399999999], [88.72287799999998, 21.946195999999986], [88.72573249999999, 21.978546999999992], [88.73524750000001, 21.98045000000002], [88.74856849999998, 21.984256000000016], [88.75332600000002, 21.995674000000008], [88.7580835, 22.006140500000015], [88.76093800000001, 22.021364500000004], [88.75618050000003, 22.03563700000001], [88.74952000000002, 22.048006499999985], [88.74856849999998, 22.064182000000017], [88.7542775, 22.0689395], [88.7580835, 22.07845450000002], [88.76474400000001, 22.08416349999999], [88.776162, 22.087018], [88.78091949999998, 22.090823999999998], [88.78187100000002, 22.097484500000007], [88.783774, 22.105096500000002], [88.78853149999998, 22.1089025], [88.79994950000003, 22.11365999999998], [88.80470700000001, 22.116514499999994], [88.80470700000001, 22.126029500000016], [88.812319, 22.128884000000028], [88.819931, 22.126029500000016], [88.83134899999999, 22.126981], [88.84086400000001, 22.126981], [88.84657299999998, 22.12412649999999], [88.85133050000002, 22.12032049999999], [88.85323349999999, 22.114611500000024], [88.85703949999998, 22.104145000000017], [88.86274850000001, 22.098435999999992], [88.87131199999999, 22.090823999999998], [88.8817785, 22.088921000000028], [88.89414799999997, 22.091775499999983], [88.90746899999999, 22.088921000000028], [88.9103235, 22.085114999999973], [88.92079000000001, 22.085114999999973], [88.92745050000002, 22.097484500000007], [88.93125650000002, 22.1089025], [88.928402, 22.119369000000006], [88.9141295, 22.129835500000013], [88.9103235, 22.13554449999998], [88.9103235, 22.141253500000005], [88.90746899999999, 22.153622999999982], [88.896051, 22.163138000000004], [88.896051, 22.168847000000028], [88.90271150000001, 22.171701499999983], [88.90746899999999, 22.170749999999998], [88.90746899999999, 22.169798500000013], [88.92079000000001, 22.165040999999974], [88.92364450000002, 22.170749999999998], [88.92649899999998, 22.178361999999993], [88.93506250000002, 22.178361999999993], [88.93982, 22.18216799999999], [88.943626, 22.184071000000017], [88.9464805, 22.185973999999987], [88.943626, 22.193585999999982], [88.9502865, 22.190731500000027], [88.96075300000001, 22.190731500000027], [88.96709633299997, 22.192634499999997]]]}}, {"type": "Feature", "properties": {"name": "Chilika Lake", "designation": "Wetland of International Importance (Ramsar Site)", "gis_marine_area_km2": "738.558937047376958", "wdpa_source_id": "68005"}, "geometry": {"type": "Polygon", "coordinates": [[[85.1893, 19.47007000000002], [85.14228000000003, 19.451819999999998], [85.11937999999998, 19.477649999999983], [85.13123999999999, 19.54858999999999], [85.15165999999999, 19.576739999999972], [85.15057000000002, 19.611649999999997], [85.18313999999998, 19.62659000000002], [85.17854000099999, 19.660630000000026], [85.20994999999999, 19.67903000000001], [85.20731, 19.71787999999998], [85.23205999999999, 19.75216999999998], [85.26792999999998, 19.78017], [85.30225999999999, 19.795999999999992], [85.33897999999999, 19.806519999999978], [85.36739, 19.839159999999993], [85.39981, 19.855669999999975], [85.42845999999997, 19.885310000000004], [85.4513, 19.91271999999998], [85.49158, 19.92014999999998], [85.53093999999999, 19.94461000000001], [85.56252, 19.928020000000004], [85.60093, 19.92649], [85.59955000000002, 19.87002000000001], [85.59091000000001, 19.81799000000001], [85.61131, 19.789379999999994], [85.59523000000002, 19.756579999999985], [85.53159, 19.72381999999999], [85.59163000000001, 19.71339999999998], [85.55786, 19.682900000000018], [85.49540000000002, 19.65048999999999], [85.42982999999998, 19.623350000000016], [85.37288999999998, 19.594400000000007], [85.34388999999999, 19.57510000000002], [85.29494, 19.544359999999983], [85.23408999999998, 19.502850000000024], [85.1893, 19.47007000000002]]]}}, {"type": "Feature", "properties": {"name": "Sundarban Reserve Forest", "designation": "Wetland of International Importance (Ramsar Site)", "gis_marine_area_km2": "2055.220635121329906", "wdpa_source_id": "555795276"}, "geometry": {"type": "Polygon", "coordinates": [[[88.18853019700003, 21.423477131000027], [88.17481325400007, 21.456686571000034], [88.17264742100008, 21.47473518000004], [88.17048158800009, 21.497837399000048], [88.15820853400004, 21.52382739500007], [88.13943798100007, 21.551983225000072], [88.13727214800008, 21.57291961100003], [88.13871603600006, 21.601075441000035], [88.14449159100008, 21.620567938000022], [88.14250183100006, 21.637220383000056], [88.15389251700003, 21.655832291000024], [88.16903769900006, 21.67110404300007], [88.17625714300004, 21.65738710000005], [88.18058880900008, 21.63211904800005], [88.18997408500007, 21.60973877300006], [88.20008130600007, 21.59746571900007], [88.20777893100006, 21.60416412400008], [88.20083618200005, 21.620000839000056], [88.21018852700007, 21.633562937000022], [88.22029574800007, 21.650889601000074], [88.23110961900005, 21.645280838000076], [88.21630859400005, 21.627239227000075], [88.21945190400004, 21.61471939100005], [88.23055267300003, 21.60972023000005], [88.23040296900007, 21.59385599700005], [88.22679324700005, 21.58591461000003], [88.24222564700005, 21.59722137500006], [88.25422713200004, 21.60035349700007], [88.24416351300005, 21.580833435000045], [88.25666809100005, 21.560831070000063], [88.27361297600004, 21.559444427000074], [88.29104629400007, 21.575807389000033], [88.28527073900005, 21.590246276000073], [88.27371963000007, 21.602519330000064], [88.27805129600006, 21.624899604000063], [88.29682184900008, 21.666050432000077], [88.29104629400007, 21.68121126400007], [88.28382685100007, 21.694206262000023], [88.27916717500005, 21.716939926000066], [88.28415679900007, 21.750579834000064], [88.28250122100008, 21.767219543000067], [88.26484680200008, 21.756942749000075], [88.24772963300006, 21.774342085000058], [88.24325201900007, 21.78918428000003], [88.24203373700004, 21.799336622000055], [88.24487639300008, 21.811519433000058], [88.25259217400009, 21.818829120000032], [88.25990186000007, 21.82492052500004], [88.27086639000004, 21.830605837000064], [88.28264310700007, 21.835478961000035], [88.29279544900004, 21.836291149000033], [88.30010513600007, 21.834666774000027], [88.29029846200007, 21.823801041000024], [88.27110290500008, 21.818740845000036], [88.26139068600008, 21.811759949000077], [88.25056170500005, 21.80989505900004], [88.25194549600008, 21.79833412200003], [88.25443267800006, 21.791200638000078], [88.26390838600008, 21.787450790000037], [88.27980045100009, 21.781874594000044], [88.29287719700005, 21.774829865000072], [88.29523201200004, 21.75710287800007], [88.29766857400006, 21.727458038000066], [88.30723571800007, 21.723690033000025], [88.31675497800006, 21.72705194400004], [88.32365857000008, 21.72583366300006], [88.33015607000004, 21.720148352000024], [88.32833099400005, 21.710279465000042], [88.33027648900008, 21.703889847000028], [88.33249664300007, 21.702222824000046], [88.31513060300006, 21.701468042000045], [88.30829620400004, 21.70697021500007], [88.29631042500006, 21.706079483000053], [88.28944397000004, 21.70166778600003], [88.29555511500007, 21.69555473300005], [88.30805206300005, 21.69362449600004], [88.32244028900004, 21.69009741800005], [88.32947360700007, 21.688830255000028], [88.33632643800007, 21.684718557000053], [88.34454983500007, 21.677637298000036], [88.35414379900004, 21.667358051000065], [88.35871235300004, 21.656165094000073], [88.35807037400008, 21.64750099200006], [88.36990531000004, 21.646342702000027], [88.37538757500005, 21.642231004000053], [88.37493072000007, 21.631494902000043], [88.37675814100004, 21.625098926000078], [88.37470229200005, 21.61619024500004], [88.37470229200005, 21.60728156500005], [88.37972770100004, 21.604312005000054], [88.38589524900004, 21.60636785400004], [88.39137751400006, 21.611850119000053], [88.39685977900007, 21.61801766700006], [88.40371261000007, 21.622586221000063], [88.41627613400004, 21.62464207100004], [88.41422028500006, 21.63537817300005], [88.40508317700005, 21.644972136000035], [88.39868720100009, 21.654337672000054], [88.39777349000008, 21.669642328000066], [88.39823034500006, 21.685175412000035], [88.40462632100008, 21.693627237000044], [88.41513399600007, 21.701393779000057], [88.42455291700009, 21.709356308000054], [88.43990325900006, 21.70930481000005], [88.44215614700005, 21.736064028000044], [88.44367899800005, 21.74763769900005], [88.44824755200005, 21.769566758000053], [88.45190239600004, 21.78144499900003], [88.45916748000008, 21.791015625000057], [88.47535430700003, 21.803069488000062], [88.48510055500003, 21.810683745000063], [88.48479598500006, 21.823780267000075], [88.48083657200004, 21.828653391000046], [88.48181915300006, 21.835128784000062], [88.49111175500008, 21.83027839700003], [88.49888610800008, 21.819721222000055], [88.50946617700004, 21.80916089400006], [88.51007531800008, 21.803983199000072], [88.51921242600008, 21.81464315900007], [88.52225812900008, 21.824084837000044], [88.51616672300008, 21.828653391000046], [88.50276563100005, 21.832612805000053], [88.49454223400005, 21.841140772000074], [88.49030304000007, 21.853961945000037], [88.48144571200004, 21.872816081000053], [88.47687715800004, 21.881039478000048], [88.47741485600005, 21.893259890000024], [88.46563720700004, 21.896394730000054], [88.46614575600006, 21.904528990000074], [88.47315087200008, 21.91092496600004], [88.48716110500004, 21.91823465300007], [88.49386165100003, 21.927371761000074], [88.49386165100003, 21.945645977000027], [88.48533368300008, 21.950519101000054], [88.47893770800005, 21.95965621000005], [88.48198341000005, 21.972143591000076], [88.48655196400006, 21.97853956600005], [88.49903934500009, 21.986153823000052], [88.50401306200007, 21.98149108900003], [88.49419403100006, 21.971569061000025], [88.48716110500004, 21.963920193000035], [88.49723053000008, 21.956439972000055], [88.50993347200006, 21.95081520100007], [88.51714325000006, 21.944139481000036], [88.52281951900005, 21.93309974700003], [88.52188110400004, 21.92072105400007], [88.50916290300006, 21.910829544000023], [88.50389099100005, 21.904167175000055], [88.49497985800008, 21.883710861000054], [88.49694824200003, 21.87567901600005], [88.50886535600006, 21.867010117000063], [88.51918792700008, 21.85890007000006], [88.52614610000006, 21.860366301000056], [88.52492781900008, 21.871939971000074], [88.53345578600005, 21.881077079000022], [88.53436949700006, 21.89356446100004], [88.52827809200005, 21.902701569000044], [88.53223750500007, 21.90879297400005], [88.54557800300006, 21.904626846000042], [88.55394744900008, 21.902708054000072], [88.55751683800008, 21.90970668500006], [88.54228832400008, 21.917930082000055], [88.53558777800004, 21.924326058000077], [88.53619691900008, 21.947473399000046], [88.53193293500004, 21.959351639000033], [88.53041008400004, 21.97092531000004], [88.53750610400004, 21.978691101000038], [88.54725647000004, 21.973779678000028], [88.55447113500009, 21.967575037000074], [88.56025797000007, 21.958133358000055], [88.56513109500008, 21.967879607000043], [88.56604480500005, 21.984326402000022], [88.57609562400006, 21.991636088000064], [88.58645101400003, 21.991331518000038], [88.59193327900005, 22.005037180000045], [88.60167952700004, 22.01600171000007], [88.60838007300003, 22.029098232000024], [88.61690804100004, 22.040976472000068], [88.62873840300006, 22.05166053800008], [88.64279651400005, 22.057118697000078], [88.65999603300008, 22.057220459000064], [88.66750375000004, 22.06371173100007], [88.67816371000004, 22.06736657400006], [88.68943281000008, 22.067062004000036], [88.70471954300007, 22.065000534000035], [88.71248626700003, 22.059341431000064], [88.72232639900005, 22.06279802000006], [88.73054979700004, 22.074067120000052], [88.73511835100004, 22.081985947000078], [88.74334174800003, 22.089904774000047], [88.75430627800006, 22.09904188300004], [88.76831651000003, 22.11152926400007], [88.77562619700007, 22.116706958000066], [88.78750443800004, 22.127671488000033], [88.80583190900006, 22.13083076500004], [88.82362365700004, 22.130052567000064], [88.83349454900008, 22.11640238800004], [88.83897681400003, 22.10391500700007], [88.85146419500006, 22.09630075000007], [88.85968759200006, 22.089600204000078], [88.87430696500007, 22.09538703900006], [88.88984004900004, 22.09538703900006], [88.90385028200006, 22.099346453000067], [88.90780969500008, 22.101478445000055], [88.90628684400008, 22.11822981000006], [88.89471317300007, 22.134981175000064], [88.88344407300008, 22.151427969000054], [88.87863922100007, 22.167825699000048], [88.87491610600006, 22.176402732000042], [88.88070294100004, 22.181884997000054], [88.89411163300008, 22.17724227900004], [88.89842224100005, 22.17055511500007], [88.90602874800004, 22.17369270300003], [88.90994168700007, 22.180666716000076], [88.91201019300007, 22.185941696000043], [88.91815185500008, 22.184900284000037], [88.92284644200004, 22.185505999000043], [88.92619671500006, 22.190074553000045], [88.92528300400005, 22.196470529000067], [88.93381097200006, 22.19921166100005], [88.94264351000004, 22.199516231000075], [88.94538464200008, 22.20591220700004], [88.94355722100005, 22.214135604000035], [88.94112396200006, 22.22521019000004], [88.95500183100006, 22.216562271000043], [88.96122229700006, 22.20773962900006], [88.97348785400004, 22.20918464700003], [88.98650162900003, 22.212003612000046], [88.99858856200007, 22.210863113000073], [89.00081643200008, 22.190074553000045], [89.00447127500007, 22.170886626000026], [89.00964897000006, 22.162054088000048], [89.01756779700008, 22.14926213600006], [89.03682708700006, 22.140001297000026], [89.04010599700007, 22.12733307700006], [89.03005517800005, 22.116063977000067], [89.02016353800008, 22.097032721000062], [89.02865600600006, 22.067182541000022], [89.04611206100003, 22.038055420000035], [89.05319249200005, 22.013648149000062], [89.05427540800008, 21.976828987000033], [89.04194641100008, 21.945829391000075], [89.01788330100004, 21.92750549300007], [89.00608562300005, 21.915644204000046], [89.00500270700007, 21.88802983200003], [89.02754747900008, 21.864982576000045], [89.02754747900008, 21.84785045600006], [89.02088498800003, 21.82691119900005], [89.00717522400004, 21.802452688000074], [89.01327071300005, 21.781225548000066], [89.01768493700007, 21.762241364000033], [89.02342307900005, 21.750578090000033], [89.03801710700003, 21.73725310900005], [89.05484008800005, 21.724040985000045], [89.07485961900005, 21.687500000000057], [89.09497833300009, 21.651308060000076], [89.10193042000003, 21.633517711000025], [89.09922312900005, 21.620522712000025], [89.07540700700008, 21.59927715500004], [89.04130139900008, 21.575482545000057], [89.01036840600005, 21.56675785400006], [88.97150387600004, 21.54613585900006], [88.88663643400008, 21.507271329000048], [88.85253082600008, 21.493787717000032], [88.77876753500004, 21.508064483000055], [88.69152063100006, 21.53423855400007], [88.59713534500008, 21.512823405000063], [88.48133490900005, 21.492201410000064], [88.38377700800004, 21.549308474000043], [88.28225333800003, 21.516789173000063], [88.22673258100008, 21.47792464300005], [88.18853019700003, 21.423477131000027]]]}}, {"type": "Feature", "properties": {"name": "Mannar Valaiguda in Tamil", "designation": "Wetland of International Importance (Ramsar Site)", "gis_marine_area_km2": "519.874862111165953", "wdpa_source_id": "555795353"}, "geometry": {"type": "MultiPolygon", "coordinates": [[[[79.18611111100006, 9.166666666000026], [79.03472222300007, 9.166666667000072], [79.03472222200008, 9.218055556000024], [79.08527777700004, 9.234722222000073], [79.10277777700009, 9.234166667000068], [79.14027777800004, 9.221666667000022], [79.16805555500008, 9.218055555000035], [79.18611111100006, 9.166666666000026]]], [[[79.17916666600007, 9.194444444000055], [79.16805555600007, 9.241666666000071], [79.16805555600007, 9.243055556000058], [79.17916666600007, 9.250000000000057], [79.19305555500006, 9.25194444400006], [79.20277777800004, 9.252777777000063], [79.21944444400003, 9.250000000000057], [79.22361111100008, 9.250000000000057], [79.23611111100007, 9.252777778000052], [79.25000000000006, 9.251388889000054], [79.25000000000006, 9.223611111000025], [79.17916666600007, 9.194444444000055]]], [[[78.99583333300006, 9.222222222000028], [78.99583333300006, 9.166666667000072], [78.87500000000006, 9.166666666000026], [78.85833333300008, 9.155555556000024], [78.75000000000006, 9.123055556000054], [78.69444444500004, 9.125000000000057], [78.67222222200007, 9.154166666000037], [78.85833333300008, 9.205555555000046], [78.87500000000006, 9.223611111000025], [78.87916666700005, 9.222222222000028], [78.99583333300006, 9.222222222000028]]], [[[78.62222222200006, 9.104166667000072], [78.47500000000008, 9.041666666000026], [78.45555555600004, 9.093055555000035], [78.57777777800004, 9.120833333000064], [78.62222222200006, 9.104166667000072]]], [[[78.24166667000003, 8.81666666700005], [78.19166667000007, 8.81666666700005], [78.23333333000005, 8.950000000000045], [78.26250000000005, 8.975000000000023], [78.30833333000004, 8.925000000000068], [78.24166667000003, 8.81666666700005]]]]}}, {"type": "Feature", "properties": {"name": "Thillai Vanam", "designation": "Wetland of International Importance (Ramsar Site)", "gis_marine_area_km2": "4.068758575577560", "wdpa_source_id": "555795363"}, "geometry": {"type": "Polygon", "coordinates": [[[79.79703383300006, 11.452381808000041], [79.79709929100005, 11.452186979000032], [79.79736293000008, 11.451857429000029], [79.79779134400007, 11.451461970000025], [79.79834687000005, 11.450897029000032], [79.79966506700003, 11.44969652800006], [79.80052189400004, 11.448834993000048], [79.80146817100007, 11.44793108600004], [79.80271255300005, 11.446855355000025], [79.80337484900008, 11.44621272300003], [79.80431171000004, 11.445332356000051], [79.80543217700006, 11.444306046000065], [79.80552162600003, 11.444037699000035], [79.80555458100008, 11.443872924000061], [79.80579468100007, 11.443340937000073], [79.80619955600008, 11.442267549000064], [79.80634079100008, 11.441947415000072], [79.80643494800006, 11.441599035000024], [79.80657147500006, 11.441250654000044], [79.80680686800008, 11.440657466000062], [79.80703163000004, 11.439845946000048], [79.80747538200006, 11.438990889000024], [79.80778139200004, 11.438152892000062], [79.80825217600005, 11.436980639000069], [79.80856289400003, 11.436189721000062], [79.80900543100006, 11.43512104000007], [79.80902897100003, 11.434603177000042], [79.80896306100004, 11.434104145000049], [79.80876062300007, 11.433680439000057], [79.80875120800005, 11.43329910400007], [79.80879415200008, 11.432549315000074], [79.80876062300007, 11.43219276000002], [79.80874069000004, 11.431702592000022], [79.80876062300007, 11.43082277700006], [79.80853935500005, 11.43035670100005], [79.80819097400007, 11.429528120000043], [79.80820670000008, 11.428824361000068], [79.80827528800006, 11.428246428000023], [79.80833691700008, 11.428068688000053], [79.80845848500007, 11.42778198600007], [79.80861468000006, 11.427348388000041], [79.80865685600008, 11.427028538000059], [79.80876358700004, 11.426565068000059], [79.80883124100006, 11.426232628000037], [79.80890096500008, 11.425813638000022], [79.80890093300007, 11.425598144000048], [79.80891623600007, 11.425123015000054], [79.80892069000004, 11.424462478000066], [79.80895835300004, 11.423991694000051], [79.80902897100003, 11.423144282000067], [79.80909958800004, 11.421934366000073], [79.80911842000006, 11.421360008000022], [79.80910429600004, 11.421110493000072], [79.80909932500003, 11.420629426000062], [79.80906663300004, 11.420253665000075], [79.80901955500008, 11.419900576000032], [79.80883594900007, 11.41960398200007], [79.80861938800007, 11.41926972500005], [79.80834162500008, 11.418940176000035], [79.80820980600004, 11.418186921000029], [79.80809230200003, 11.417605145000039], [79.80805444700007, 11.417466621000074], [79.80802149200008, 11.417283015000066], [79.80800736800006, 11.41703349900007], [79.80797441300007, 11.41669924200005], [79.80794145800007, 11.416346153000063], [79.80780963900008, 11.416106053000021], [79.80726823700007, 11.414985586000057], [79.80718349500006, 11.414754902000027], [79.80699988900005, 11.414477139000041], [79.80683511500007, 11.413865119000036], [79.80664680100006, 11.413361380000026], [79.80633744100004, 11.412357292000024], [79.80616189300008, 11.411487657000066], [79.80610069100004, 11.411384085000066], [79.80605832000003, 11.411219310000035], [79.80604890500007, 11.410993333000022], [79.80597828700007, 11.410701447000065], [79.80595474800003, 11.41056492000007], [79.80586529900006, 11.410291865000033], [79.80575763200005, 11.410068440000032], [79.80565815300008, 11.409665721000067], [79.80562793700005, 11.409497204000047], [79.80562049100007, 11.40939266600003], [79.80558986000005, 11.409210174000066], [79.80556870400005, 11.409105488000023], [79.80553646000004, 11.40892294200006], [79.80551221000007, 11.408766523000054], [79.80542199600006, 11.408466292000071], [79.80538980600005, 11.408130964000065], [79.80526943100006, 11.407376070000055], [79.80511204300007, 11.407245889000023], [79.80475424700006, 11.407340046000058], [79.80441482000003, 11.407527740000035], [79.80408102500007, 11.407580146000043], [79.80387388000008, 11.407646056000033], [79.80372322900007, 11.407730797000056], [79.80346757100006, 11.407817753000074], [79.80339368000006, 11.407843785000068], [79.80329952300008, 11.40789557100004], [79.80307354600006, 11.407966189000035], [79.80266867200004, 11.40806034600007], [79.80225438100007, 11.408234536000066], [79.80200957300008, 11.408338109000056], [79.80178830500006, 11.408441681000056], [79.80150112600006, 11.408559378000064], [79.80123748700004, 11.408738276000065], [79.80106329700004, 11.40880889300007], [79.80078082600005, 11.408983084000056], [79.80018763700008, 11.409364419000042], [79.79953795500006, 11.409665721000067], [79.79915191100008, 11.409901113000046], [79.79857284700006, 11.410225955000044], [79.79699101100005, 11.411657140000045], [79.79643077700007, 11.412306822000062], [79.79606066100007, 11.413166807000039], [79.79507021000006, 11.414138174000072], [79.79454293100008, 11.41449126200007], [79.79395547700005, 11.414029984000024], [79.79366256400004, 11.414029894000066], [79.79336306300007, 11.414372582000055], [79.79286543800004, 11.414899392000052], [79.79285780000004, 11.414916943000037], [79.79267862400008, 11.415023249000058], [79.79249031100005, 11.415169192000064], [79.79294226400003, 11.415611730000023], [79.79234109500004, 11.416259517000071], [79.79202894200006, 11.416445018000047], [79.79161935900004, 11.416162547000056], [79.79121448500007, 11.415955402000066], [79.79084256500005, 11.416656871000043], [79.79032941000008, 11.417405419000033], [79.78970797400007, 11.418201044000057], [79.78901592100004, 11.419175568000071], [79.78838489000003, 11.42012353900003], [79.78781542000007, 11.42089393200007], [79.78697742400004, 11.42228745400007], [79.78643131400008, 11.423130158000049], [79.78584283300006, 11.424081143000024], [79.78567805900008, 11.424396569000066], [79.78521198200008, 11.424824983000065], [79.78446343500008, 11.42541346300004], [79.78428603400005, 11.425546474000043], [79.78416592800005, 11.425660640000046], [79.78411505400004, 11.425653563000026], [79.78408467300005, 11.425649486000054], [79.78314523800003, 11.425728889000027], [79.78247672400005, 11.42577596700005], [79.78258867900007, 11.425042594000047], [79.78258971200006, 11.424749657000064], [79.78278744200009, 11.423798672000032], [79.78320173200007, 11.422113264000075], [79.78349361900007, 11.421906119000028], [79.78385141500007, 11.421764883000037], [79.78435044600008, 11.421435334000023], [79.78530143100005, 11.421021044000042], [79.78540500400004, 11.420795067000029], [79.78553682300003, 11.420154800000034], [79.78570630600007, 11.419806420000043], [79.78593228200003, 11.419335635000039], [79.78613942700008, 11.418987255000047], [79.78638423500007, 11.418554133000043], [79.78674203200006, 11.417895034000026], [79.78761295700008, 11.417036024000026], [79.78782483600008, 11.416652163000037], [79.78835509600003, 11.415962562000061], [79.78849296600004, 11.415744649000032], [79.78848358900007, 11.415519317000076], [79.78835211500007, 11.41540929200005], [79.78816500500005, 11.415391914000054], [79.78799735000007, 11.41550350600005], [79.78784855200007, 11.415633358000036], [79.78768109400005, 11.415781665000054], [79.78747661600005, 11.416022522000048], [79.78729069700006, 11.416226282000025], [79.78704918600005, 11.416504049000025], [79.78684505000007, 11.416781903000071], [79.78586637200004, 11.417443081000044], [79.78565451900005, 11.417537238000023], [79.78545208200006, 11.417650227000024], [79.78471765800003, 11.417970360000027], [79.78460467000008, 11.418083348000039], [79.78383258300005, 11.418497639000066], [79.78335422000004, 11.418990284000074], [79.78252345300007, 11.419510629000058], [79.78089669700006, 11.42070957900006], [79.77923798000006, 11.422573819000036], [79.77881764400007, 11.42366168500007], [79.77827732600008, 11.424373029000037], [79.77903058100003, 11.424956802000054], [79.77886109900004, 11.425615901000072], [79.77822083200004, 11.42612434800003], [79.77722276900005, 11.426576301000068], [79.77588689300006, 11.42668797500005], [79.77475079700008, 11.42672890600005], [79.77436179100005, 11.42701110300004], [79.77372213300004, 11.42690936200006], [79.77307967200005, 11.42628258800005], [79.77204502800004, 11.425342368000031], [79.77108314300006, 11.424752268000077], [79.76997786000004, 11.423882449000075], [79.76904963300007, 11.422941948000073], [79.76861747300006, 11.421788743000036], [79.76804345400006, 11.420671293000055], [79.76794447100008, 11.420450093000056], [79.76783000600005, 11.420602354000039], [79.76695966600005, 11.420757404000028], [79.76669872800005, 11.421518492000075], [79.76709518100006, 11.422636864000026], [79.76805816900008, 11.423437388000025], [79.76891392000005, 11.424133114000028], [79.77017983200005, 11.424824983000065], [79.77114023300004, 11.425615901000072], [79.77236427300005, 11.426425650000056], [79.77365279000009, 11.427224919000025], [79.77469936400007, 11.427593195000043], [79.77569742700007, 11.428101643000048], [79.77703445500003, 11.428704247000042], [79.77833382000006, 11.429193863000023], [79.77974617400008, 11.42960815300006], [79.78215659100005, 11.429834130000074], [79.78213775900008, 11.428949055000032], [79.78242023000007, 11.428854898000054], [79.78306049700006, 11.429796467000074], [79.78457691400007, 11.429754477000074], [79.78459479200006, 11.42972388000004], [79.78459996200007, 11.429862377000063], [79.78459996200007, 11.430149555000071], [79.78464233300008, 11.431227652000075], [79.78466116400006, 11.432042109000065], [79.78462408700005, 11.432508238000025], [79.78479769200004, 11.433816967000041], [79.78491538800006, 11.434410155000023], [79.78499788500005, 11.434801048000054], [79.78432690700004, 11.436123811000073], [79.78367034700005, 11.43753997300007], [79.78331942800008, 11.438303543000075], [79.78286925600008, 11.43945962600003], [79.78273094800005, 11.439781807000031], [79.78255204900006, 11.440163142000074], [79.78237785900006, 11.440591556000072], [79.78222720800005, 11.440963476000036], [79.78214717500003, 11.441184744000054], [79.78202477100007, 11.44139659700005], [79.78195886100008, 11.441650821000053], [79.78178937900003, 11.441970955000045], [79.78141208000005, 11.442891749000069], [79.78087025100007, 11.443999179000059], [79.78084181700007, 11.444064569000034], [79.78082470200007, 11.444104199000037], [79.78072340200004, 11.444468221000022], [79.78063595700007, 11.444616764000045], [79.78057004700008, 11.444805077000069], [79.78047118200004, 11.445026346000077], [79.78033465400006, 11.445228783000061], [79.78020754300007, 11.445520670000064], [79.78019905500008, 11.445540202000075], [79.78019406500005, 11.445571013000063], [79.78010867800003, 11.44579843300005], [79.77985916200004, 11.446283341000026], [79.77958857900006, 11.447025089000022], [79.77930996400005, 11.447545939000065], [79.77892700900009, 11.448585477000051], [79.77879989700006, 11.448797330000048], [79.77872689800006, 11.449002416000042], [79.77871044800008, 11.449032722000027], [79.77815963000006, 11.449917797000069], [79.77759468900007, 11.450991186000067], [79.77692617500009, 11.452186979000032], [79.77635181700003, 11.453279199000065], [79.77580570700007, 11.454220768000027], [79.77529545600004, 11.45509007100003], [79.77511355500008, 11.455407910000076], [79.77446867900005, 11.456376961000046], [79.77371542400005, 11.457497428000067], [79.77374975000004, 11.457904388000031], [79.77370600800003, 11.458702636000055], [79.77371542400005, 11.459248746000071], [79.77372484000006, 11.460444539000036], [79.77380256400005, 11.462956231000021], [79.77366834500003, 11.464116658000023], [79.77376250300006, 11.46553842700007], [79.77387549100007, 11.466479996000032], [79.77464757700005, 11.465218294000067], [79.77525779100006, 11.46518388100003], [79.77636112700003, 11.465495013000066], [79.77769380000007, 11.465759469000034], [79.78022054700006, 11.466108332000033], [79.78141486300007, 11.466237929000044], [79.78270132800003, 11.466457697000067], [79.78380433200005, 11.466678139000066], [79.78472285300006, 11.466763697000033], [79.78591057000006, 11.465671224000062], [79.78773708000006, 11.463896421000072], [79.79052402400004, 11.461437586000045], [79.79148310500005, 11.460527339000066], [79.79239719100008, 11.45979836500004], [79.79523027600004, 11.457384440000055], [79.79536569100003, 11.456976175000023], [79.79691568500004, 11.452549483000041], [79.79703383300006, 11.452381808000041]]]}}, {"type": "Feature", "properties": {"name": "Thane Creek", "designation": "Wetland of International Importance (Ramsar Site)", "gis_marine_area_km2": "19.118805214317199", "wdpa_source_id": "555795371"}, "geometry": {"type": "Polygon", "coordinates": [[[72.92735360600005, 19.095570743000053], [72.92913532900008, 19.099990327000057], [72.93006842900007, 19.10237527700008], [72.93069734000005, 19.10220825500005], [72.93124037500007, 19.102070523000066], [72.93164131100008, 19.102264141000035], [72.93235241900004, 19.102194336000025], [72.93290505100003, 19.102063474000033], [72.93341225100005, 19.102128093000033], [72.93366035300005, 19.102430726000023], [72.93392809300008, 19.103551021000044], [72.93418309800006, 19.104249539000023], [72.93391733100003, 19.105041011000026], [72.93415261000007, 19.106897426000046], [72.93476740100004, 19.108138304000022], [72.93674772500003, 19.107557635000035], [72.93876652100005, 19.106904573000065], [72.94088929000003, 19.111423174000038], [72.94115599100007, 19.11268787700004], [72.94099536400006, 19.113092350000045], [72.94078445600007, 19.113369266000063], [72.94077256700007, 19.113677247000055], [72.94061797600006, 19.113722550000034], [72.93982181100006, 19.11347109600007], [72.93962145200004, 19.11350027000003], [72.93796155700005, 19.113340579000067], [72.93755126400004, 19.113397596000027], [72.93755235100008, 19.11349974500007], [72.93795292000004, 19.113577848000034], [72.93853780100005, 19.113661035000064], [72.93896133800007, 19.11372965100003], [72.93956956000005, 19.113867157000072], [72.93996257800006, 19.113911504000043], [72.94049720200007, 19.11399042000005], [72.94091149700006, 19.114282349000064], [72.94153617900008, 19.114598865000062], [72.94165769600005, 19.11492442800005], [72.94149640500007, 19.115043866000065], [72.94153211000008, 19.11533024700003], [72.94165999500007, 19.11552651200003], [72.94170292700005, 19.11606100700004], [72.94189927100007, 19.116060943000036], [72.94198808400006, 19.116377664000026], [72.94301679700004, 19.116318427000067], [72.94310324800006, 19.116723837000052], [72.94290564700003, 19.116801527000064], [72.94280460300007, 19.117133582000065], [72.94284274700004, 19.117316429000027], [72.94264188100004, 19.117622495000035], [72.94236756800007, 19.11870712800004], [72.94227447300005, 19.118755012000065], [72.94224802000008, 19.118862702000058], [72.94214769800004, 19.11891727400007], [72.94208640300008, 19.11930993800007], [72.94225991200005, 19.119434419000072], [72.94212579800006, 19.12067472600006], [72.94195213800003, 19.120745529000033], [72.94197453400005, 19.121311696000078], [72.94209744400007, 19.12146276200008], [72.94208110100004, 19.122281919000045], [72.94187982800008, 19.12248497400003], [72.94164889400008, 19.123154172000056], [72.94067932900003, 19.123513048000063], [72.93900223100007, 19.12276563100005], [72.93855274000003, 19.122503145000053], [72.93838702000005, 19.12223117900004], [72.93807312900003, 19.122121837000066], [72.94044721100005, 19.12752454400004], [72.94057628100006, 19.127534295000032], [72.94078357100005, 19.127070202000027], [72.94113437700008, 19.126496318000022], [72.94185349800006, 19.125747819000026], [72.94274239800006, 19.122483685000077], [72.94342289200006, 19.12031138800006], [72.94351734900005, 19.12025150000005], [72.94387197300006, 19.120179902000075], [72.95156845400004, 19.120514067000045], [72.95203659500004, 19.120380546000035], [72.95557865300003, 19.120452928000077], [72.95568904100008, 19.121948512000074], [72.95598298000004, 19.122485182000048], [72.95636065600007, 19.123148663000052], [72.95710181300007, 19.123612666000042], [72.95726909400008, 19.12491629300007], [72.95616026800008, 19.125728588000072], [72.95582833300006, 19.126838716000066], [72.95390380900005, 19.127011780000032], [72.95154292800004, 19.12753327100006], [72.94999687200004, 19.127808811000023], [72.94440028600008, 19.128196209000066], [72.94333269500004, 19.128072994000036], [72.94322534600008, 19.129748926000048], [72.94328298100004, 19.132432116000075], [72.94660476900003, 19.13767643500006], [72.94829895800007, 19.140458281000065], [72.95187246100005, 19.146290659000044], [72.95510528900007, 19.151428064000072], [72.95569474200005, 19.151122188000045], [72.95708279100006, 19.15082073900004], [72.95894395700003, 19.150465026000063], [72.96192701800004, 19.148749613000064], [72.96210919400005, 19.148749543000065], [72.96274344500006, 19.14847010400007], [72.96270516600003, 19.146316632000037], [72.96176793300003, 19.145353447000048], [72.96050413600005, 19.145061227000042], [72.96049676500007, 19.144230624000045], [72.96053423400008, 19.143675219000045], [72.95833390300004, 19.14282987100006], [72.95712805200003, 19.14230573100002], [72.95753212600005, 19.141338907000033], [72.95796425300006, 19.140350924000074], [72.95801912600007, 19.140217197000027], [72.96420068600008, 19.142584184000043], [72.96354304300007, 19.144468851000056], [72.96343738500008, 19.144746226000052], [72.96330696600006, 19.144858243000044], [72.96307513300007, 19.144878290000065], [72.96301966800007, 19.144904541000074], [72.96307476200008, 19.14496180200007], [72.96307901200004, 19.14514837100006], [72.96335128200008, 19.14518783400007], [72.96458378800008, 19.145390571000064], [72.96440927600008, 19.14634974200004], [72.96282593800004, 19.146103397000047], [72.96286616700007, 19.147455638000054], [72.96286838100008, 19.148565509000036], [72.96270953100003, 19.148630939000043], [72.96209712600006, 19.148882161000074], [72.96187649600006, 19.148869199000046], [72.96028563700008, 19.14984917700008], [72.95888220300003, 19.150623169000028], [72.95712724200007, 19.150877570000034], [72.95587611500008, 19.151137170000027], [72.95538709700008, 19.151538822000077], [72.95527450400004, 19.151737834000073], [72.95570269900003, 19.15238772300006], [72.95666451400007, 19.153797385000075], [72.95738213600004, 19.15490103600007], [72.95818720800008, 19.15609092400007], [72.95905819500007, 19.157379312000046], [72.95987789200007, 19.158585841000047], [72.96104463900008, 19.16030749300006], [72.96204970100007, 19.161731348000046], [72.96242830400007, 19.16226226300006], [72.96270920000006, 19.162129977000063], [72.96295661000005, 19.162531167000054], [72.96279479200007, 19.162722906000056], [72.96335498000008, 19.162868659000026], [72.96386330500007, 19.163265710000076], [72.96425055100008, 19.163461710000036], [72.96455355700004, 19.164016899000046], [72.96479270400005, 19.16389429800006], [72.96516766700006, 19.163806744000055], [72.96545633700003, 19.163836029000038], [72.96545136400005, 19.163967956000022], [72.96724821400005, 19.16531333100005], [72.96908872900008, 19.166978409000023], [72.96993600700006, 19.167820219000077], [72.97065120500008, 19.167709306000063], [72.97051988000004, 19.167346073000033], [72.97058647400007, 19.167028402000028], [72.97078302200003, 19.166987814000038], [72.97100969900004, 19.167052203000026], [72.97136750600004, 19.16749216200003], [72.97156473600006, 19.167731282000034], [72.97265094400007, 19.168139191000023], [72.97306873600007, 19.16830784800004], [72.97314872800007, 19.168425941000066], [72.97315249200005, 19.16867931400003], [72.97287603300003, 19.168810269000062], [72.97219887200004, 19.169073172000026], [72.97181412300006, 19.169539987000064], [72.97132806600007, 19.170038125000076], [72.97084074400004, 19.170105078000063], [72.97025614100005, 19.170161173000054], [72.96988305500008, 19.170294628000022], [72.96952835300004, 19.17066987100003], [72.96911539600006, 19.17086566000006], [72.96889305100007, 19.17072452800005], [72.96877804900004, 19.170441740000058], [72.96872806400006, 19.170086126000058], [72.96866138600006, 19.169951635000075], [72.96856539000004, 19.16984784600004], [72.96841848000008, 19.16973159400004], [72.96825123600007, 19.169703739000056], [72.96810698800005, 19.169698448000076], [72.96801365800007, 19.169859771000063], [72.96778089200006, 19.170135877000064], [72.96796067100007, 19.170395196000072], [72.96828937800007, 19.17014776700006], [72.96847523200006, 19.17021812200005], [72.96847740400005, 19.170546881000064], [72.96870621300008, 19.17101284000006], [72.96899417700007, 19.171277022000027], [72.96976075100008, 19.17086062900006], [72.97046181900004, 19.170447913000032], [72.97085345900007, 19.170413692000068], [72.97132796300008, 19.170345863000023], [72.97138775300004, 19.170731698000054], [72.97146694000008, 19.171006746000046], [72.97170598000008, 19.170922501000064], [72.97175814000008, 19.17071639200003], [72.97178042400003, 19.170565724000028], [72.97161666300008, 19.170398930000033], [72.97169180700007, 19.170160758000065], [72.97181111000003, 19.170081639000045], [72.97194888500007, 19.169980636000048], [72.97210251200005, 19.16978762900004], [72.97226014000006, 19.169695385000068], [72.97304982800006, 19.169208592000075], [72.97315031400007, 19.16928572200004], [72.97342516900005, 19.169180291000032], [72.97372076000005, 19.168966992000037], [72.97389667300007, 19.168772215000047], [72.97399766600006, 19.168590883000036], [72.97408695400003, 19.16839731500005], [72.97442948700007, 19.168432578000022], [72.97469703000007, 19.168675094000037], [72.97490948200004, 19.168970521000062], [72.97493629600007, 19.16916526800003], [72.97507262300007, 19.169249791000027], [72.97528025400004, 19.169383133000053], [72.97545273100008, 19.16956570800005], [72.97561962900005, 19.16995213000007], [72.97588632400004, 19.170043356000065], [72.97608920800008, 19.170111576000068], [72.97583734300008, 19.170702026000072], [72.97603985000006, 19.171048048000046], [72.97615670500005, 19.171366630000023], [72.97606692700003, 19.171695214000067], [72.97579456500006, 19.17214388600007], [72.97590319700004, 19.17263813900007], [72.97540712700004, 19.173215437000067], [72.97608897100008, 19.17360041300003], [72.97387847200008, 19.17649442000004], [72.97447954400008, 19.177701866000064], [72.97493166800007, 19.17892839700005], [72.97556459600008, 19.180223751000028], [72.97654083700007, 19.181013439000026], [72.97939250500008, 19.180432676000066], [72.97924147500004, 19.179437149000023], [72.98091656200006, 19.179158014000052], [72.98097471700004, 19.179385007000064], [72.98111963500008, 19.180032296000036], [72.98102349700008, 19.18033801000007], [72.98115501700005, 19.180833977000077], [72.98036187600007, 19.18104640000007], [72.98043638400003, 19.181288605000077], [72.98122477700008, 19.18113241900005], [72.98131655300006, 19.181552526000075], [72.98157938900005, 19.181474089000062], [72.98176445500008, 19.181410800000037], [72.98183960100005, 19.181500253000024], [72.98222162200005, 19.18135021300003], [72.98238501100008, 19.181652107000048], [72.98264482100006, 19.182024632000036], [72.98273904500007, 19.18223689200005], [72.98257892300006, 19.182637382000053], [72.98251405500008, 19.18269310900007], [72.98193049600007, 19.183228279000048], [72.98152447100006, 19.183613691000062], [72.98111706100008, 19.184100503000025], [72.98124035200004, 19.18414371700004], [72.98119078000008, 19.184283871000048], [72.98096935800004, 19.184241409000037], [72.98090752700006, 19.184633692000034], [72.98099707900008, 19.184984893000035], [72.98113555200007, 19.185046914000054], [72.98106551900008, 19.185726875000057], [72.98093022300003, 19.18596339000004], [72.98096445700008, 19.18617800800007], [72.98090127500006, 19.18707385400006], [72.98102515000005, 19.18721289700005], [72.98100367200004, 19.187472843000023], [72.98123557300005, 19.187530458000026], [72.98466434400007, 19.188464026000077], [72.98599826300006, 19.188833155000054], [72.98644525100008, 19.188104053000075], [72.98682033400007, 19.186261342000023], [72.98715286100008, 19.185564101000068], [72.98721170600004, 19.18570330500006], [72.98743430100006, 19.185751408000044], [72.98740619700004, 19.185526138000057], [72.98721605200006, 19.185399377000067], [72.98726018400004, 19.185329009000043], [72.98781511200008, 19.18528912900007], [72.98765582900006, 19.184536372000025], [72.98787023500006, 19.184498735000034], [72.98795965100004, 19.184322682000072], [72.98807717400007, 19.18435352800003], [72.98818595000006, 19.184157362000064], [72.98822885400006, 19.18405015700006], [72.98823670600007, 19.18404132300003], [72.98834732900008, 19.184017849000043], [72.98838874900008, 19.183876293000026], [72.98844538000003, 19.183735827000078], [72.98837485100006, 19.183713563000026], [72.98837794600007, 19.183533219000026], [72.98841599800005, 19.183462853000037], [72.98837519500006, 19.18342450700004], [72.98835688700007, 19.183445369000026], [72.98830436400004, 19.183386519000067], [72.98837664800004, 19.18313690900004], [72.98841825300008, 19.18311761900003], [72.98851850500006, 19.183124059000022], [72.98859655700005, 19.183079345000067], [72.98857422200007, 19.182890351000026], [72.98855628300004, 19.18281259500003], [72.98849416500008, 19.18283335900003], [72.98822649900006, 19.182750913000064], [72.98807824600004, 19.182701747000067], [72.98806504400005, 19.18265325400006], [72.98806380800005, 19.182572006000044], [72.98813827900005, 19.182558191000055], [72.98811462200007, 19.18230786500004], [72.98806291400007, 19.182219072000066], [72.98796170400004, 19.182264435000036], [72.98793825700005, 19.182180696000046], [72.98781055600006, 19.18176191200007], [72.98780463800006, 19.18175595500003], [72.98777617700006, 19.181653235000056], [72.98774142300005, 19.181638788000043], [72.98764145800004, 19.18158157000005], [72.98762012900005, 19.18150019500007], [72.98769829800005, 19.18130585700004], [72.98769570000007, 19.181187110000053], [72.98767820600006, 19.181121761000043], [72.98767289500006, 19.181116786000075], [72.98748531100006, 19.180999512000028], [72.98727710500003, 19.180897274000074], [72.98710138900003, 19.18045939800004], [72.98710091500004, 19.17997594700006], [72.98717159200004, 19.179340140000022], [72.98740447000006, 19.179333430000042], [72.98744372400006, 19.17923965700004], [72.98735482500007, 19.179206400000055], [72.98720114400004, 19.17912711200006], [72.98733552200008, 19.179074683000067], [72.98781887200005, 19.179306582000038], [72.98783777000006, 19.17912061000004], [72.98762444300007, 19.179009610000037], [72.98724048000008, 19.178779245000044], [72.98724537400005, 19.178529225000034], [72.98706617200008, 19.177993375000028], [72.98674201100005, 19.177510306000045], [72.98660714300007, 19.177288562000058], [72.98647146000008, 19.176982103000057], [72.98619787800004, 19.176778039000055], [72.98616071900005, 19.176695856000038], [72.98609078200008, 19.176670595000076], [72.98597139300006, 19.176705979000076], [72.98585359900005, 19.176628091000055], [72.98546540000007, 19.17578843600006], [72.98543537100005, 19.175605191000045], [72.98558284100005, 19.175421569000036], [72.98553782300007, 19.175328308000076], [72.98552409700005, 19.17519636000003], [72.98546849800005, 19.175041846000056], [72.98556278200004, 19.174899569000047], [72.98545568900005, 19.174843776000046], [72.98553714600007, 19.174677435000035], [72.98557548400004, 19.174569958000063], [72.98584475800004, 19.17463168100005], [72.98609061800005, 19.17452583000005], [72.98654104500008, 19.174506783000027], [72.98650196700004, 19.17418236800006], [72.98627232900003, 19.17412517300005], [72.98562541600006, 19.17410168200007], [72.98544069600007, 19.174095522000073], [72.98537638600004, 19.173956616000055], [72.98514748900004, 19.17358245300005], [72.98479494400004, 19.173183429000062], [72.98444095000008, 19.17204510600004], [72.98452910500004, 19.171550384000057], [72.98478215700004, 19.171128328000066], [72.98489392700003, 19.170525504000068], [72.98504287900005, 19.170308043000034], [72.98511895400003, 19.17025161500004], [72.98537565100008, 19.17019199400005], [72.98591765600008, 19.170224473000076], [72.98631589200005, 19.170232503000022], [72.98652971100006, 19.170198836000054], [72.98919984500003, 19.170738394000068], [72.98970207700006, 19.170834141000057], [72.99100964000007, 19.17088898700007], [72.99104528700008, 19.16939399200004], [72.99105929400008, 19.167992078000054], [72.99078445900005, 19.167627612000047], [72.99028184900004, 19.16721732800005], [72.98921819200007, 19.16614026600007], [72.98911439400007, 19.16583827200003], [72.98900605600005, 19.16326179400005], [72.98893066100004, 19.161407267000072], [72.98920905000006, 19.160508212000025], [72.98972236800006, 19.159855035000078], [72.99057233500008, 19.159070259000032], [72.99224920200004, 19.15777787600007], [72.99221053300005, 19.157733148000034], [72.99170878000007, 19.15724229600005], [72.99167440300005, 19.156630241000073], [72.99184764300003, 19.156540478000068], [72.99190721600007, 19.156536954000046], [72.99202003200008, 19.156519332000073], [72.99219416400007, 19.156526436000036], [72.99225969400004, 19.15657982500005], [72.99247721000006, 19.15661016000007], [72.99286080600007, 19.156656766000026], [72.99309357300007, 19.156730479000032], [72.99317227200004, 19.156401622000033], [72.99309579500004, 19.15546870000003], [72.99032602700004, 19.155683389000046], [72.98971920700006, 19.155390097000065], [72.98980505300005, 19.15426649400007], [72.99085085800004, 19.15397142200004], [72.99293041400006, 19.15384281000007], [72.99282588800008, 19.151929879000022], [72.99279273000008, 19.15158385700005], [72.99185269700007, 19.15163734300006], [72.99108512700008, 19.151668164000057], [72.98957512900006, 19.151657314000033], [72.98945171800005, 19.15172371500006], [72.98731655900008, 19.155032687000073], [72.98516726800005, 19.153811461000032], [72.98492368500007, 19.15366524800004], [72.98514564500005, 19.153168420000043], [72.98525823300008, 19.15296961400003], [72.98547926600008, 19.152570643000047], [72.98571277800005, 19.15227778700006], [72.98601320800003, 19.151809786000058], [72.98663643900005, 19.15074840500006], [72.98636466400006, 19.150643777000028], [72.98617736700004, 19.150163831000043], [72.98431791000007, 19.150480020000032], [72.98429861100004, 19.150218712000026], [72.98425075100005, 19.14997144800003], [72.98426275100007, 19.14990356000004], [72.98532690700006, 19.149695232000056], [72.98497085500003, 19.14784220300004], [72.98504731400004, 19.147732683000072], [72.98519795900006, 19.147604736000062], [72.98530736300006, 19.14768243800006], [72.98548998000007, 19.14776854200005], [72.98552266700005, 19.147914026000024], [72.98591772800006, 19.148044905000063], [72.98645549500003, 19.148135719000038], [72.98668083500007, 19.148644483000055], [72.98685798700006, 19.14897767700006], [72.98702114400004, 19.149090294000075], [72.98698855400005, 19.14861637300004], [72.98699206000003, 19.14828373000006], [72.98702123600003, 19.148053650000065], [72.98559221100004, 19.145911530000035], [72.98474136700008, 19.144676810000078], [72.98464763400005, 19.144097135000038], [72.98434882600003, 19.14228703400005], [72.98365398000004, 19.140324415000066], [72.98374585100004, 19.139739813000062], [72.98383881400008, 19.139125963000026], [72.98379724100005, 19.138083418000065], [72.98376816100006, 19.137680400000022], [72.98395459700004, 19.137219019000042], [72.98423514400008, 19.137194530000045], [72.98471703100006, 19.13630243800003], [72.98510963500007, 19.136021242000027], [72.98568047200007, 19.136075204000065], [72.98596726000005, 19.13634373900004], [72.98634056100008, 19.137099358000057], [72.98656916200008, 19.137437422000062], [72.98667380000006, 19.137827723000044], [72.98672654200004, 19.138128378000033], [72.98698983700007, 19.13933392900003], [72.98806863700008, 19.14250370900004], [72.98866760100003, 19.14274461900004], [72.98908698000008, 19.14255611300007], [72.98932772400008, 19.142404137000028], [72.98972737200006, 19.142226578000077], [72.99005017600007, 19.14207323100004], [72.99074777200008, 19.14173124000007], [72.99218444300004, 19.14145076400007], [72.99266707700008, 19.14166786800007], [72.99586772100008, 19.14192482800007], [72.99595318000007, 19.138219953000032], [72.99595161600007, 19.136996760000045], [72.99606549000003, 19.13645219400007], [72.99617395800004, 19.136058391000063], [72.99630156400008, 19.135778435000077], [72.99624419400004, 19.135544045000074], [72.99624186400007, 19.135139004000052], [72.99597624300003, 19.134451114000058], [72.99560748700003, 19.134341249000045], [72.99457035200004, 19.13457134600003], [72.99420060200003, 19.134378041000048], [72.99383484100008, 19.134348458000034], [72.99372878900004, 19.133533751000073], [72.99365911700005, 19.133183963000022], [72.99328378300004, 19.133212515000025], [72.99313898300005, 19.13316386300005], [72.99271295300008, 19.13301102500003], [72.99249496100003, 19.132549074000053], [72.99237955000007, 19.132068755000034], [72.99241062200008, 19.13185786400004], [72.99271466800008, 19.131531574000064], [72.99301267000004, 19.131289855000034], [72.99318311600007, 19.130525716000022], [72.99347486700003, 19.130499633000056], [72.99348401000003, 19.130139093000025], [72.99360171900008, 19.130056925000076], [72.99408709500005, 19.12838326900004], [72.99405295100007, 19.12824391600003], [72.99349304400005, 19.127848305000043], [72.99299839600008, 19.127886712000077], [72.99263595400004, 19.127959361000023], [72.99205717600006, 19.128353995000055], [72.99164834900006, 19.128475021000042], [72.99001257000003, 19.12802896000005], [72.98927577700005, 19.127830241000026], [72.98880139900007, 19.127588321000076], [72.98868907600007, 19.127050225000062], [72.98862127900003, 19.126973306000025], [72.98860863100003, 19.126865526000074], [72.98846493000008, 19.126605047000055], [72.98826439800007, 19.12616160600004], [72.98806277100005, 19.125546935000045], [72.98774615800005, 19.124667635000037], [72.98768749500005, 19.12444867000005], [72.98761118700008, 19.12425993000005], [72.98747144300006, 19.123923035000075], [72.98698630400008, 19.12299932800005], [72.98694194700005, 19.122792016000062], [72.98689601500007, 19.122613414000057], [72.98680611000003, 19.122262860000035], [72.98677876000005, 19.122115308000048], [72.98695633800008, 19.121460785000068], [72.98711369400007, 19.120941620000053], [72.98718973500007, 19.120626214000026], [72.98723786300008, 19.12049309300005], [72.98695571900004, 19.120010948000072], [72.98667024000008, 19.11963005800004], [72.98665155500004, 19.119414368000037], [72.98671357500007, 19.11919223600006], [72.98693997300006, 19.119063519000065], [72.98729684500006, 19.119161830000053], [72.98770501200005, 19.11937180800004], [72.98824777400006, 19.119632383000067], [72.98854532400003, 19.119325969000045], [72.98870595600005, 19.11912066700006], [72.98893644400005, 19.118768699000043], [72.98901002700006, 19.117126634000044], [72.98841880800006, 19.115599260000067], [72.98843490900003, 19.115299640000046], [72.98855481400005, 19.11502100200005], [72.98877062300005, 19.114780274000054], [72.98900474100003, 19.114701297000067], [72.98932771800008, 19.114627158000076], [72.98979038800007, 19.11452003200003], [72.98997636500008, 19.114514427000074], [72.99026817400005, 19.114559362000023], [72.99060510200007, 19.114684023000052], [72.99067697000004, 19.114735488000065], [72.99117634000004, 19.11532020800007], [72.99156327500003, 19.11597364900007], [72.99163349400004, 19.116540308000026], [72.99283401000008, 19.116852272000074], [72.99407048500007, 19.115696197000034], [72.99531982600007, 19.11506118500006], [72.99773851200007, 19.113848700000062], [72.99811633200005, 19.11364803500004], [73.00074992200007, 19.112451306000025], [73.00127932400005, 19.110529341000074], [72.99790335400007, 19.109568989000024], [72.99747562300007, 19.108131612000022], [72.99699529800006, 19.106853956000066], [72.99687336700003, 19.10660073300005], [72.99680528300007, 19.104712274000065], [72.99655965000005, 19.103752893000035], [72.99654646000005, 19.103702702000078], [72.99573352800007, 19.100406435000025], [72.99541791200005, 19.09920690200005], [72.99503051300007, 19.097904293000056], [72.99621351400003, 19.097653627000057], [72.99634531300006, 19.097635883000066], [72.99635496000008, 19.097231727000064], [72.99633729700008, 19.096868279000034], [72.99626537000006, 19.096235058000048], [72.99564574500005, 19.096389412000065], [72.99407261900006, 19.097196592000046], [72.99326278600006, 19.09717799400005], [72.99276590400007, 19.096916252000028], [72.99242377500008, 19.09645046600002], [72.99230979700008, 19.095661679000045], [72.99273085200008, 19.095214295000062], [72.99274785900008, 19.095179827000038], [72.99347858800007, 19.094644492000043], [72.99425207400003, 19.09412755200003], [72.99488023300006, 19.093768675000035], [72.99954856500005, 19.09358059500005], [73.00030487500004, 19.093524659000025], [73.00457804700005, 19.096990660000074], [73.00540323300004, 19.09734038000005], [73.00563686100008, 19.095973024000045], [73.00539348900008, 19.09235973400007], [73.00433627500007, 19.09253142500006], [73.00413737100007, 19.092482524000047], [73.00338473800008, 19.09191771600007], [73.00308994000005, 19.091521595000074], [73.00288375300005, 19.09133938100007], [73.00152279200006, 19.090099805000023], [73.00070067200005, 19.089430630000038], [73.00033675500003, 19.089123250000057], [73.00016851800007, 19.088704540000037], [72.99998259600005, 19.088384575000077], [72.99920739800007, 19.087333311000066], [72.99914521000005, 19.087245856000038], [72.99901766900007, 19.08707361000006], [72.99882588700007, 19.086821118000046], [72.99857855800008, 19.086475912000026], [72.99824723800003, 19.086011222000025], [72.99784574000006, 19.085516821000056], [72.99770250800003, 19.085446958000034], [72.99756695800005, 19.085480250000046], [72.99717697400007, 19.085763843000052], [72.99705096500003, 19.08550072500003], [72.99680639300004, 19.08486173700004], [72.99672726800003, 19.08479127800007], [72.99549851800003, 19.083504004000076], [72.99533331100008, 19.083402361000026], [72.98994216400007, 19.077159703000063], [72.98894607300008, 19.076005828000064], [72.98718195200007, 19.07621856700007], [72.98637379300004, 19.076282022000044], [72.98505675400008, 19.075870253000062], [72.98464420200008, 19.075566067000068], [72.98425687500003, 19.071814235000033], [72.98413299900005, 19.071381433000056], [72.98408816000006, 19.071173119000036], [72.98415890300004, 19.071105974000034], [72.98414667800006, 19.070817143000056], [72.98390671300007, 19.070576841000047], [72.98397485400005, 19.070279077000066], [72.98415772900006, 19.07004043200004], [72.98426390600008, 19.069748898000057], [72.98412550600005, 19.069625044000077], [72.98437011000004, 19.069274698000072], [72.98467517300008, 19.06908936800005], [72.98498528000005, 19.068931490000068], [72.98508798200004, 19.068700602000035], [72.98519774400006, 19.068592461000037], [72.98491147500005, 19.068277900000055], [72.98440333300005, 19.068427529000076], [72.98297319000005, 19.067180802000053], [72.98303262000007, 19.067099729000063], [72.98216153800007, 19.066297381000027], [72.98246583200006, 19.065950427000075], [72.98181831100004, 19.065323298000067], [72.98081353300006, 19.064841820000026], [72.97798284300006, 19.063793024000063], [72.97802925000008, 19.063481446000026], [72.97131483700008, 19.061901824000074], [72.96290886700007, 19.059906870000077], [72.96028562600003, 19.05932074900005], [72.95841130100007, 19.058893418000025], [72.95803656500004, 19.058835240000064], [72.95727156800007, 19.058738427000037], [72.95493553100005, 19.057841952000047], [72.94644887100003, 19.05482485700003], [72.94426306800005, 19.05403227900007], [72.94364362800007, 19.053796414000033], [72.93689154800006, 19.051427344000047], [72.93656802000004, 19.05184141700005], [72.94074797500008, 19.053456855000036], [72.94092011000004, 19.053523101000053], [72.94084195900007, 19.053686480000067], [72.94097894100008, 19.05396385100005], [72.94115940100005, 19.054067177000036], [72.94111475700004, 19.05442255400004], [72.94089492400008, 19.05445684800003], [72.94074177800007, 19.05465687000003], [72.94050897700004, 19.054665930000056], [72.94031492000005, 19.054697994000037], [72.94010945500008, 19.054750567000042], [72.94008350500008, 19.054828444000066], [72.94035890100008, 19.055009115000075], [72.94048553700003, 19.055291754000052], [72.94107811100008, 19.055719699000065], [72.94146217900004, 19.055708887000037], [72.94219469800004, 19.056296358000054], [72.94189116500007, 19.05748087300003], [72.93983063300004, 19.058581915000048], [72.93984063600004, 19.057461180000075], [72.93958537900005, 19.057526598000038], [72.93961243000007, 19.05793344800003], [72.93934112500006, 19.05876134300007], [72.93894831400007, 19.058951490000027], [72.93867119200007, 19.058970298000077], [72.93783368700008, 19.058768325000074], [72.93778976500005, 19.05847847000007], [72.93744848700004, 19.05817883700007], [72.93633335100003, 19.057464092000032], [72.93618605300003, 19.05749383600005], [72.93627828100006, 19.057857671000022], [72.93589815800004, 19.058119454000064], [72.93577234500003, 19.058265778000077], [72.93559528000003, 19.058437002000062], [72.93554249200008, 19.05866977200003], [72.93486387400003, 19.058690666000075], [72.93419612500003, 19.058444303000044], [72.93391924400004, 19.058171972000025], [72.93355953300005, 19.05768125000003], [72.93323454700004, 19.057321897000065], [72.93285055000007, 19.056822683000064], [72.93289442700006, 19.056453973000032], [72.93291554900003, 19.055998915000032], [72.93255031200005, 19.05627830800006], [72.93250172500007, 19.056684973000074], [72.93260349500008, 19.057059714000047], [72.93305860500004, 19.05754333300007], [72.93324102900004, 19.05826538900004], [72.93285812000005, 19.058779060000063], [72.93261257600005, 19.058640628000035], [72.93192257000004, 19.058137240000065], [72.93093371400005, 19.057326869000065], [72.93022793600005, 19.05669847200005], [72.92940096000007, 19.05683646600005], [72.93007740400003, 19.057142458000044], [72.92990282500006, 19.05746509000005], [72.93116686900004, 19.058154589000026], [72.93089369800003, 19.058578690000047], [72.93136790300008, 19.05885584600003], [72.93120782700004, 19.059164992000035], [72.93119164700005, 19.059164992000035], [72.93118212900004, 19.05938367300007], [72.93279518700007, 19.06034779500004], [72.93306806900006, 19.059886869000024], [72.93372134300006, 19.059909221000055], [72.93375455900008, 19.05988684700003], [72.93431566400005, 19.05952379400003], [72.93495367800006, 19.059362794000037], [72.93570989100004, 19.059280238000042], [72.93708492300004, 19.059280904000047], [72.93720148400007, 19.059948505000023], [72.93720111800008, 19.060550028000023], [72.93695592100005, 19.061500394000063], [72.93639467500003, 19.062610464000045], [72.93608897000007, 19.063077254000063], [72.93579341900005, 19.063323027000024], [72.93571595100008, 19.063500865000037], [72.93550684700006, 19.064904897000076], [72.93483442700006, 19.066561227000022], [72.93430021100005, 19.067270867000047], [72.93409623600007, 19.068194660000074], [72.93405423300004, 19.068639834000066], [72.93407722800004, 19.06908938400005], [72.93393653900006, 19.069564031000027], [72.93372619100006, 19.069833837000033], [72.93281200600006, 19.070469394000042], [72.93223776800005, 19.07078943600004], [72.93184043300005, 19.07207728700007], [72.93176933600006, 19.072545767000065], [72.93164969300005, 19.07281962600007], [72.93076768000003, 19.073737450000067], [72.92969336800007, 19.074586898000064], [72.92782374800004, 19.07508794200004], [72.92691636200004, 19.07499399200003], [72.92578922000007, 19.07455108000005], [72.92491186700005, 19.074036141000022], [72.92419746300004, 19.07398190300006], [72.92353691300008, 19.07430221900006], [72.92303264500003, 19.074349230000053], [72.92265933600004, 19.07404699800003], [72.92184914500007, 19.073018967000053], [72.92082881400006, 19.07362835300006], [72.92206115100004, 19.07493304700006], [72.92131134300007, 19.075174910000044], [72.92085621600006, 19.075351330000046], [72.92008593800006, 19.075833189000036], [72.91895832900008, 19.076439381000057], [72.91861104300006, 19.07676424400006], [72.91799411300008, 19.07767745700005], [72.91793895400008, 19.078052655000022], [72.91778724500006, 19.07852716900004], [72.91781718300007, 19.079029296000044], [72.91750486600006, 19.079585017000056], [72.91882599700006, 19.08119172000005], [72.92072765500006, 19.08347978100005], [72.92103316500004, 19.083543201000055], [72.92134017900008, 19.082937479000066], [72.92252569900006, 19.082011111000043], [72.92171565500007, 19.081031949000078], [72.92166038000005, 19.08074229400006], [72.92218152300006, 19.080244090000065], [72.92263128800005, 19.08002117600006], [72.92311342800008, 19.08039849200003], [72.92348319500007, 19.080092523000076], [72.92409743400003, 19.08078481900003], [72.92625104400008, 19.079125222000073], [72.92802260600007, 19.078804749000028], [72.92891501800005, 19.078781237000044], [72.92894490300006, 19.077687153000056], [72.92818864000003, 19.077067601000067], [72.92894800100004, 19.076380736000033], [72.92983223900006, 19.076047498000037], [72.93093109900008, 19.075060534000045], [72.93604540000007, 19.080207509000047], [72.93402329400004, 19.081828104000067], [72.93112729500007, 19.079037924000033], [72.93014687700008, 19.079983103000075], [72.92899186400007, 19.07902271000006], [72.92850814100007, 19.078906881000023], [72.92634383100005, 19.07927584600003], [72.92146781000008, 19.08300580300005], [72.92102909200008, 19.083848181000064], [72.92395832800008, 19.08751618100007], [72.92486441600005, 19.089864273000046], [72.92596389700003, 19.092311152000036], [72.92735360600005, 19.095570743000053]]]}}]}